NORAD_CAT_ID,OBJECT_NAME,OBJECT_TYPE,EPOCH,MEAN_MOTION,ECCENTRICITY,INCLINATION,RA_OF_ASC_NODE,ARG_OF_PERICENTER,MEAN_ANOMALY,BSTAR,MEAN_MOTION_DOT,MEAN_MOTION_DDOT,TLE_LINE0,TLE_LINE1,TLE_LINE2,SEMIMAJOR_AXIS,PERIOD,APOGEE,PERIGEE,DECAYED
52678.0,STARLINK-4074,PAYLOAD,2024-05-07 13:35:14,15.08833899,0.0001233,53.2167,277.0166,72.3574,287.7553,-0.00041946,-6.956e-05,0.0,0 STARLINK-4074,1 52678U 22053Y   24128.56613776 -.00006956  00000-0 -41946-3 0  9993,2 52678  53.2167 277.0166 0001233  72.3574 287.7553 15.08833899109854,6917.899,95.438,540.617,538.911,0.0
52678.0,STARLINK-4074,PAYLOAD,2024-05-07 19:56:46,15.08839013,0.0001361,53.2162,275.8266,82.9163,277.1984,-0.00018782,-3.276e-05,0.0,0 STARLINK-4074,1 52678U 22053Y   24128.83109775 -.00003276  00000-0 -18782-3 0  9996,2 52678  53.2162 275.8266 0001361  82.9163 277.1984 15.08839013109461,6917.883,95.438,540.69,538.807,0.0
52678.0,STARLINK-4074,PAYLOAD,2024-05-08 02:18:19,15.08829429,0.0001347,53.2152,274.635,76.5603,283.5539,-0.00041253,-6.845e-05,0.0,0 STARLINK-4074,1 52678U 22053Y   24129.09606207 -.00006845  00000-0 -41253-3 0  9991,2 52678  53.2152 274.6350 0001347  76.5603 283.5539 15.08829429109505,6917.913,95.438,540.71,538.846,0.0
52678.0,STARLINK-4074,PAYLOAD,2024-05-08 13:26:02,15.08819715,0.0001275,53.2167,272.5571,91.6585,268.4553,-0.00045646,-7.541e-05,0.0,0 STARLINK-4074,1 52678U 22053Y   24129.55975269 -.00007541  00000-0 -45646-3 0  9993,2 52678  53.2167 272.5571 0001275  91.6585 268.4553 15.08819715109572,6917.942,95.439,540.689,538.925,0.0
52678.0,STARLINK-4074,PAYLOAD,2024-05-08 16:36:48,15.08826675,0.0001092,53.2156,271.9612,86.8247,273.287,-0.00026834,-4.554e-05,0.0,0 STARLINK-4074,1 52678U 22053Y   24129.69223113 -.00004554  00000-0 -26834-3 0  9991,2 52678  53.2156 271.9612 0001092  86.8247 273.2870 15.08826675110028,6917.921,95.438,540.542,539.031,0.0
52678.0,STARLINK-4074,PAYLOAD,2024-05-09 02:09:07,15.08831758,0.0001179,53.2164,270.1778,92.6959,267.4168,-3.6127e-05,-8.63e-06,0.0,0 STARLINK-4074,1 52678U 22053Y   24130.08967308 -.00000863  00000-0 -36127-4 0  9993,2 52678  53.2164 270.1778 0001179  92.6959 267.4168 15.08831758109652,6917.906,95.438,540.586,538.955,0.0
52678.0,STARLINK-4074,PAYLOAD,2024-05-09 14:52:13,15.08838971,0.0001251,53.2164,267.8,97.2395,262.8739,0.00088745,0.00013864,0.0,0 STARLINK-4074,1 52678U 22053Y   24130.61960123  .00013864  00000-0  88745-3 0  9995,2 52678  53.2164 267.8000 0001251  97.2395 262.8739 15.08838971110164,6917.884,95.438,540.614,538.883,0.0
52678.0,STARLINK-4074,PAYLOAD,2024-05-09 16:27:36,15.08846259,0.0001222,53.2167,267.5038,99.9843,260.1287,0.0010635,0.00016681,0.0,0 STARLINK-4074,1 52678U 22053Y   24130.68584028  .00016681  00000-0  10635-2 0  9990,2 52678  53.2167 267.5038 0001222  99.9843 260.1287 15.08846259110178,6917.861,95.437,540.572,538.881,0.0
52678.0,STARLINK-4074,PAYLOAD,2024-05-10 13:07:37,15.08845666,0.0001155,53.2152,263.6395,106.3365,253.7754,0.00036954,5.599e-05,0.0,0 STARLINK-4074,1 52678U 22053Y   24131.54696046  .00005599  00000-0  36954-3 0  9999,2 52678  53.2152 263.6395 0001155 106.3365 253.7754 15.08845666109875,6917.863,95.437,540.527,538.929,0.0
52678.0,STARLINK-4074,PAYLOAD,2024-05-10 14:43:00,15.08847272,0.0001133,53.2155,263.3422,102.6541,257.4578,0.00046219,7.077e-05,0.0,0 STARLINK-4074,1 52678U 22053Y   24131.61320054  .00007077  00000-0  46219-3 0  9998,2 52678  53.2155 263.3422 0001133 102.6541 257.4578 15.08847272110318,6917.858,95.437,540.507,538.939,0.0
52678.0,STARLINK-4074,PAYLOAD,2024-05-10 17:53:46,15.08865319,0.0001145,53.2169,262.7457,94.356,265.7563,0.0010151,0.00015915,0.0,0 STARLINK-4074,1 52678U 22053Y   24131.74567736  .00015915  00000-0  10151-2 0  9997,2 52678  53.2169 262.7457 0001145  94.3560 265.7563 15.08865319109906,6917.803,95.436,540.46,538.876,0.0
52678.0,STARLINK-4074,PAYLOAD,2024-05-11 12:58:21,15.08924644,0.0001185,53.2166,259.1796,100.5481,259.5645,0.0022852,0.00036353,0.0,0 STARLINK-4074,1 52678U 22053Y   24132.54052919  .00036353  00000-0  22852-2 0  9998,2 52678  53.2166 259.1796 0001185 100.5481 259.5645 15.08924644110029,6917.622,95.432,540.306,538.667,0.0
52678.0,STARLINK-4074,PAYLOAD,2024-05-11 17:44:32,15.08815814,0.0001125,53.2162,258.2874,95.5853,264.5267,-0.0022019,-0.00035137,0.0,0 STARLINK-4074,1 52678U 22053Y   24132.73926037 -.00035137  00000-0 -22019-2 0  9996,2 52678  53.2162 258.2874 0001125  95.5853 264.5267 15.08815814110059,6917.954,95.439,540.598,539.041,0.0
52678.0,STARLINK-4074,PAYLOAD,2024-05-12 01:41:30,15.08758816,0.0001989,53.2164,256.8006,71.0138,289.1069,-0.0027279,-0.00043347,0.0,0 STARLINK-4074,1 52678U 22053Y   24133.07049233 -.00043347  00000-0 -27279-2 0  9993,2 52678  53.2164 256.8006 0001989  71.0138 289.1069 15.08758816110102,6918.129,95.443,541.37,538.618,0.0
52678.0,STARLINK-4074,PAYLOAD,2024-05-12 12:49:13,15.08791003,0.0002277,53.217,254.7174,111.1085,249.0151,0.0023292,0.00036927,0.0,0 STARLINK-4074,1 52678U 22053Y   24133.53418388  .00036927  00000-0  23292-2 0  9990,2 52678  53.2170 254.7174 0002277 111.1085 249.0151 15.08791003110179,6918.03,95.441,541.47,538.32,0.0
52678.0,STARLINK-4074,PAYLOAD,2024-05-12 14:24:36,15.08801537,0.000132,53.2171,254.4193,77.3677,282.7462,0.0027726,0.00044067,0.0,0 STARLINK-4074,1 52678U 22053Y   24133.60042563  .00044067  00000-0  27726-2 0  9996,2 52678  53.2171 254.4193 0001320  77.3677 282.7462 15.08801537110618,6917.998,95.44,540.776,538.95,0.0
52678.0,STARLINK-4074,PAYLOAD,2024-05-13 01:32:18,15.08856162,0.0001382,53.2175,252.3355,103.1207,256.994,0.00093193,0.00014581,0.0,0 STARLINK-4074,1 52678U 22053Y   24134.06410207  .00014581  00000-0  93193-3 0  9991,2 52678  53.2175 252.3355 0001382 103.1207 256.9940 15.08856162110252,6917.831,95.437,540.652,538.74,0.0
52678.0,STARLINK-4074,PAYLOAD,2024-05-13 11:04:36,15.08886484,0.0001496,53.2171,250.5533,93.6018,266.5145,0.0018723,0.00029673,0.0,0 STARLINK-4074,1 52678U 22053Y   24134.46153385  .00029673  00000-0  18723-2 0  9999,2 52678  53.2171 250.5533 0001496  93.6018 266.5145 15.08886484110316,6917.738,95.435,540.638,538.568,0.0
52678.0,STARLINK-4074,PAYLOAD,2024-05-13 14:15:22,15.08890292,0.0001368,53.2175,249.9582,91.2708,268.844,0.0016379,0.00025911,0.0,0 STARLINK-4074,1 52678U 22053Y   24134.59400917  .00025911  00000-0  16379-2 0  9995,2 52678  53.2175 249.9582 0001368  91.2708 268.8440 15.08890292110768,6917.727,95.434,540.538,538.645,0.0
52678.0,STARLINK-4074,PAYLOAD,2024-05-14 12:30:45,15.08865662,0.000104,53.2152,245.7943,68.8199,291.2905,0.0011829,0.00018601,0.0,0 STARLINK-4074,1 52678U 22053Y   24135.52136261  .00018601  00000-0  11829-2 0  9990,2 52678  53.2152 245.7943 0001040  68.8199 291.2905 15.08865662110476,6917.802,95.436,540.386,538.948,0.0
52678.0,STARLINK-4074,PAYLOAD,2024-05-14 14:06:08,15.08863519,0.0001326,53.2158,245.4938,93.5089,266.6054,0.00042171,6.434e-05,0.0,0 STARLINK-4074,1 52678U 22053Y   24135.58760023  .00006434  00000-0  42171-3 0  9991,2 52678  53.2158 245.4938 0001326  93.5089 266.6054 15.08863519110912,6917.809,95.436,540.591,538.756,0.0
52678.0,STARLINK-4074,PAYLOAD,2024-05-15 12:21:33,15.08836457,0.0001542,53.2164,241.333,95.5042,264.6126,0.00022624,3.314e-05,0.0,0 STARLINK-4074,1 52678U 22053Y   24136.51496589  .00003314  00000-0  22624-3 0  9993,2 52678  53.2164 241.3330 0001542  95.5042 264.6126 15.08836457110628,6917.891,95.438,540.823,538.689,0.0
52678.0,STARLINK-4074,PAYLOAD,2024-05-16 12:12:19,15.08864309,0.0002123,53.2183,236.8746,127.4283,232.6902,0.00093464,0.00014628,0.0,0 STARLINK-4074,1 52678U 22053Y   24137.50855683  .00014628  00000-0  93464-3 0  9997,2 52678  53.2183 236.8746 0002123 127.4283 232.6902 15.08864309110777,6917.806,95.436,541.14,538.202,0.0
52678.0,STARLINK-4074,PAYLOAD,2024-05-16 13:47:42,15.08869543,0.0001357,53.2163,236.5783,93.3949,266.7199,0.001188,0.00018685,0.0,0 STARLINK-4074,1 52678U 22053Y   24137.57479924  .00018685  00000-0  11880-2 0  9992,2 52678  53.2163 236.5783 0001357  93.3949 266.7199 15.08869543111212,6917.79,95.436,540.594,538.716,0.0
52678.0,STARLINK-4074,PAYLOAD,2024-05-16 23:20:01,15.08860001,0.0001751,53.2156,234.79,83.4184,276.7007,0.00042697,6.517e-05,0.0,0 STARLINK-4074,1 52678U 22053Y   24137.97223761  .00006517  00000-0  42697-3 0  9994,2 52678  53.2156 234.7900 0001751  83.4184 276.7007 15.08860001110841,6917.819,95.436,540.896,538.473,0.0
52678.0,STARLINK-4074,PAYLOAD,2024-05-17 12:03:07,15.08809999,0.0001377,53.2162,232.4115,61.6327,298.4803,-0.0010536,-0.00017003,0.0,0 STARLINK-4074,1 52678U 22053Y   24138.50217007 -.00017003  00000-0 -10536-2 0  9990,2 52678  53.2162 232.4115 0001377  61.6327 298.4803 15.08809999110925,6917.972,95.439,540.79,538.884,0.0
52678.0,STARLINK-4074,PAYLOAD,2024-05-17 15:13:53,15.08810125,0.0001146,53.2159,231.8167,83.2424,276.8699,-0.00096567,-0.00015611,0.0,0 STARLINK-4074,1 52678U 22053Y   24138.63465020 -.00015611  00000-0 -96567-3 0  9996,2 52678  53.2159 231.8167 0001146  83.2424 276.8699 15.08810125111379,6917.972,95.439,540.63,539.044,0.0
52678.0,STARLINK-4074,PAYLOAD,2024-05-18 05:32:22,15.08820178,2.77e-05,53.2157,229.1398,65.1844,294.9177,0.00044398,6.782e-05,0.0,0 STARLINK-4074,1 52678U 22053Y   24139.23081440  .00006782  00000-0  44398-3 0  9995,2 52678  53.2157 229.1398 0000277  65.1844 294.9177 15.08820178111036,6917.941,95.439,539.998,539.614,0.0
52678.0,STARLINK-4074,PAYLOAD,2024-05-18 11:53:54,15.0885683,0.0001478,53.2154,227.9549,84.0433,276.0728,0.0015765,0.00024903,0.0,0 STARLINK-4074,1 52678U 22053Y   24139.49577143  .00024903  00000-0  15765-2 0  9993,2 52678  53.2154 227.9549 0001478  84.0433 276.0728 15.08856830111076,6917.829,95.436,540.716,538.671,0.0
52678.0,STARLINK-4074,PAYLOAD,2024-05-18 13:29:17,15.08870804,0.0001196,53.2152,227.6543,83.4402,276.6726,0.0020336,0.00032252,0.0,0 STARLINK-4074,1 52678U 22053Y   24139.56200696  .00032252  00000-0  20336-2 0  9993,2 52678  53.2152 227.6543 0001196  83.4402 276.6726 15.08870804111511,6917.786,95.436,540.479,538.824,0.0
